STARLINK-34766          
1 66505U 25263W   25325.66672454 -.01130117  42045-3 -18536-2 0  9996
2 66505  43.0012 252.5421 0002000 261.2636  97.5871 16.02318275  2243
STARLINK-34765          
1 66506U 25263X   25325.66672454 -.01123633  41639-3 -18350-2 0  9994
2 66506  43.0013 252.5389 0002052 257.9856 102.1747 16.02389806  2244
STARLINK-34767          
1 66507U 25263Y   25325.66672454 -.01128770  42100-3 -18174-2 0  9990
2 66507  43.0015 252.5300 0002078 257.1338 106.5546 16.02630136  2245
STARLINK-35608          
1 66508U 25263Z   25325.66672454 -.01132564  42496-3 -17922-2 0  9995
2 66508  43.0009 252.5184 0002112 257.5605 110.5622 16.02921099  2240
STARLINK-35598          
1 66509U 25263AA  25325.66672454 -.01130076  42557-3 -17371-2 0  9998
2 66509  43.0006 252.5004 0002117 257.5890 117.5439 16.03405906  2248
STARLINK-35600          
1 66510U 25263AB  25325.66672454 -.01127485  42211-3 -17701-2 0  9994
2 66510  43.0010 252.5132 0002144 257.2570 112.7948 16.03052659  2244
STARLINK-35444          
1 66511U 25263AC  25325.66672454 -.01125853  42209-3 -17432-2 0  9990
2 66511  43.0007 252.5046 0002175 258.6878 114.7504 16.03283905  2245
STARLINK-35366          
1 66512U 25263AD  25325.66672454 -.01129049  42552-3 -17213-2 0  9990
2 66512  43.0005 252.4952 0002095 258.1982 118.8515 16.03542628  2248
STARLINK-35692          
1 66513U 25263AE  25325.66672454 -.01133410  42682-3 -17651-2 0  9998
2 66513  43.0008 252.5084 0002111 259.9229 111.9650 16.03188374  2249
